[{"OBJECT_NAME":"FOSSASAT-2E25","OBJECT_ID":"2026-067BQ","EPOCH":"2026-04-28T20:59:32.637984","MEAN_MOTION":14.92056057,"ECCENTRICITY":0.0003479,"INCLINATION":97.7561,"RA_OF_ASC_NODE":77.916,"ARG_OF_PERICENTER":88.0815,"MEAN_ANOMALY":272.0802,"EPHEMERIS_TYPE":0,"CLASSIFICATION_TYPE":"U","NORAD_CAT_ID":68478,"ELEMENT_SET_NO":999,"REV_AT_EPOCH":437,"BSTAR":0.00016801,"MEAN_MOTION_DOT":1.65e-5,"MEAN_MOTION_DDOT":0},{"OBJECT_NAME":"TRANSPORTER-16 OBJECT BR","OBJECT_ID":"2026-067BR","EPOCH":"2026-04-28T20:58:00.831936","MEAN_MOTION":14.92187169,"ECCENTRICITY":0.0003052,"INCLINATION":97.7512,"RA_OF_ASC_NODE":77.903,"ARG_OF_PERICENTER":78.3411,"MEAN_ANOMALY":281.8151,"EPHEMERIS_TYPE":0,"CLASSIFICATION_TYPE":"U","NORAD_CAT_ID":68479,"ELEMENT_SET_NO":999,"REV_AT_EPOCH":437,"BSTAR":0.00043597,"MEAN_MOTION_DOT":4.385e-5,"MEAN_MOTION_DDOT":0},{"OBJECT_NAME":"TRANSPORTER-16 OBJECT BS","OBJECT_ID":"2026-067BS","EPOCH":"2026-04-28T19:08:40.535232","MEAN_MOTION":14.92615948,"ECCENTRICITY":0.0005547,"INCLINATION":97.7591,"RA_OF_ASC_NODE":77.8721,"ARG_OF_PERICENTER":78.6839,"MEAN_ANOMALY":281.5003,"EPHEMERIS_TYPE":0,"CLASSIFICATION_TYPE":"U","NORAD_CAT_ID":68480,"ELEMENT_SET_NO":999,"REV_AT_EPOCH":436,"BSTAR":0.00031591,"MEAN_MOTION_DOT":3.197e-5,"MEAN_MOTION_DDOT":0},{"OBJECT_NAME":"TORO3","OBJECT_ID":"2026-067BT","EPOCH":"2026-04-28T19:24:45.346752","MEAN_MOTION":14.92011537,"ECCENTRICITY":0.0004265,"INCLINATION":97.7631,"RA_OF_ASC_NODE":77.8693,"ARG_OF_PERICENTER":107.9761,"MEAN_ANOMALY":252.1923,"EPHEMERIS_TYPE":0,"CLASSIFICATION_TYPE":"U","NORAD_CAT_ID":68481,"ELEMENT_SET_NO":999,"REV_AT_EPOCH":436,"BSTAR":0.00020478,"MEAN_MOTION_DOT":2.021e-5,"MEAN_MOTION_DDOT":0},{"OBJECT_NAME":"TRANSPORTER-16 OBJECT BU","OBJECT_ID":"2026-067BU","EPOCH":"2026-04-28T20:45:14.527008","MEAN_MOTION":14.92613953,"ECCENTRICITY":0.000495,"INCLINATION":97.7538,"RA_OF_ASC_NODE":77.9224,"ARG_OF_PERICENTER":65.8907,"MEAN_ANOMALY":294.283,"EPHEMERIS_TYPE":0,"CLASSIFICATION_TYPE":"U","NORAD_CAT_ID":68482,"ELEMENT_SET_NO":999,"REV_AT_EPOCH":437,"BSTAR":0.00031089,"MEAN_MOTION_DOT":3.145e-5,"MEAN_MOTION_DDOT":0},{"OBJECT_NAME":"TRANSPORTER-16 OBJECT BV","OBJECT_ID":"2026-067BV","EPOCH":"2026-04-28T20:52:28.331040","MEAN_MOTION":14.92347469,"ECCENTRICITY":0.0004869,"INCLINATION":97.7609,"RA_OF_ASC_NODE":77.9372,"ARG_OF_PERICENTER":89.7987,"MEAN_ANOMALY":270.379,"EPHEMERIS_TYPE":0,"CLASSIFICATION_TYPE":"U","NORAD_CAT_ID":68483,"ELEMENT_SET_NO":999,"REV_AT_EPOCH":437,"BSTAR":0.00041868,"MEAN_MOTION_DOT":4.227e-5,"MEAN_MOTION_DDOT":0},{"OBJECT_NAME":"TRANSPORTER-16 OBJECT BW","OBJECT_ID":"2026-067BW","EPOCH":"2026-04-28T21:04:38.125056","MEAN_MOTION":14.92039897,"ECCENTRICITY":0.0003119,"INCLINATION":97.7583,"RA_OF_ASC_NODE":77.9184,"ARG_OF_PERICENTER":109.5872,"MEAN_ANOMALY":250.5684,"EPHEMERIS_TYPE":0,"CLASSIFICATION_TYPE":"U","NORAD_CAT_ID":68484,"ELEMENT_SET_NO":999,"REV_AT_EPOCH":437,"BSTAR":0.00021205,"MEAN_MOTION_DOT":2.096e-5,"MEAN_MOTION_DDOT":0},{"OBJECT_NAME":"TRANSPORTER-16 OBJECT BX","OBJECT_ID":"2026-067BX","EPOCH":"2026-04-28T21:01:54.391008","MEAN_MOTION":14.92109487,"ECCENTRICITY":0.0003087,"INCLINATION":97.7545,"RA_OF_ASC_NODE":77.9095,"ARG_OF_PERICENTER":102.7837,"MEAN_ANOMALY":257.3727,"EPHEMERIS_TYPE":0,"CLASSIFICATION_TYPE":"U","NORAD_CAT_ID":68485,"ELEMENT_SET_NO":999,"REV_AT_EPOCH":437,"BSTAR":0.00069438,"MEAN_MOTION_DOT":7.006e-5,"MEAN_MOTION_DDOT":0},{"OBJECT_NAME":"TRANSPORTER-16 OBJECT BY","OBJECT_ID":"2026-067BY","EPOCH":"2026-04-28T19:30:20.253024","MEAN_MOTION":14.91809558,"ECCENTRICITY":0.0002472,"INCLINATION":97.7545,"RA_OF_ASC_NODE":77.8376,"ARG_OF_PERICENTER":103.2254,"MEAN_ANOMALY":256.924,"EPHEMERIS_TYPE":0,"CLASSIFICATION_TYPE":"U","NORAD_CAT_ID":68486,"ELEMENT_SET_NO":999,"REV_AT_EPOCH":436,"BSTAR":0.0001962,"MEAN_MOTION_DOT":1.924e-5,"MEAN_MOTION_DDOT":0},{"OBJECT_NAME":"TRANSPORTER-16 OBJECT BZ","OBJECT_ID":"2026-067BZ","EPOCH":"2026-04-28T20:54:33.914304","MEAN_MOTION":14.92304285,"ECCENTRICITY":0.0003252,"INCLINATION":97.7507,"RA_OF_ASC_NODE":77.9047,"ARG_OF_PERICENTER":69.7625,"MEAN_ANOMALY":290.3943,"EPHEMERIS_TYPE":0,"CLASSIFICATION_TYPE":"U","NORAD_CAT_ID":68487,"ELEMENT_SET_NO":999,"REV_AT_EPOCH":437,"BSTAR":0.00041247,"MEAN_MOTION_DOT":4.158e-5,"MEAN_MOTION_DDOT":0},{"OBJECT_NAME":"TRANSPORTER-16 OBJECT CA","OBJECT_ID":"2026-067CA","EPOCH":"2026-04-28T16:24:50.891040","MEAN_MOTION":14.91603519,"ECCENTRICITY":0.0001648,"INCLINATION":97.7546,"RA_OF_ASC_NODE":77.6977,"ARG_OF_PERICENTER":127.6795,"MEAN_ANOMALY":232.4573,"EPHEMERIS_TYPE":0,"CLASSIFICATION_TYPE":"U","NORAD_CAT_ID":68488,"ELEMENT_SET_NO":999,"REV_AT_EPOCH":434,"BSTAR":0.0001825,"MEAN_MOTION_DOT":1.776e-5,"MEAN_MOTION_DDOT":0},{"OBJECT_NAME":"TRANSPORTER-16 OBJECT CB","OBJECT_ID":"2026-067CB","EPOCH":"2026-04-28T19:44:37.450752","MEAN_MOTION":14.91322367,"ECCENTRICITY":0.0001231,"INCLINATION":97.7504,"RA_OF_ASC_NODE":77.8114,"ARG_OF_PERICENTER":175.4035,"MEAN_ANOMALY":184.7195,"EPHEMERIS_TYPE":0,"CLASSIFICATION_TYPE":"U","NORAD_CAT_ID":68489,"ELEMENT_SET_NO":999,"REV_AT_EPOCH":436,"BSTAR":0.00031845,"MEAN_MOTION_DOT":3.118e-5,"MEAN_MOTION_DDOT":0},{"OBJECT_NAME":"TRANSPORTER-16 OBJECT CC","OBJECT_ID":"2026-067CC","EPOCH":"2026-04-28T19:42:23.937696","MEAN_MOTION":14.91387785,"ECCENTRICITY":0.0002504,"INCLINATION":97.7584,"RA_OF_ASC_NODE":77.8377,"ARG_OF_PERICENTER":148.697,"MEAN_ANOMALY":211.4398,"EPHEMERIS_TYPE":0,"CLASSIFICATION_TYPE":"U","NORAD_CAT_ID":68490,"ELEMENT_SET_NO":999,"REV_AT_EPOCH":436,"BSTAR":0.00019779,"MEAN_MOTION_DOT":1.919e-5,"MEAN_MOTION_DDOT":0},{"OBJECT_NAME":"TRANSPORTER-16 OBJECT CD","OBJECT_ID":"2026-067CD","EPOCH":"2026-04-28T19:49:09.564960","MEAN_MOTION":14.91174022,"ECCENTRICITY":0.0002342,"INCLINATION":97.7528,"RA_OF_ASC_NODE":77.8165,"ARG_OF_PERICENTER":183.2453,"MEAN_ANOMALY":176.8751,"EPHEMERIS_TYPE":0,"CLASSIFICATION_TYPE":"U","NORAD_CAT_ID":68491,"ELEMENT_SET_NO":999,"REV_AT_EPOCH":436,"BSTAR":0.00051064,"MEAN_MOTION_DOT":5.016e-5,"MEAN_MOTION_DDOT":0},{"OBJECT_NAME":"TRANSPORTER-16 OBJECT CE","OBJECT_ID":"2026-067CE","EPOCH":"2026-04-28T19:50:31.637184","MEAN_MOTION":14.91176582,"ECCENTRICITY":0.0002651,"INCLINATION":97.7532,"RA_OF_ASC_NODE":77.8162,"ARG_OF_PERICENTER":186.0889,"MEAN_ANOMALY":174.0298,"EPHEMERIS_TYPE":0,"CLASSIFICATION_TYPE":"U","NORAD_CAT_ID":68492,"ELEMENT_SET_NO":999,"REV_AT_EPOCH":436,"BSTAR":0.00060505,"MEAN_MOTION_DOT":5.955e-5,"MEAN_MOTION_DDOT":0},{"OBJECT_NAME":"TRANSPORTER-16 OBJECT CF","OBJECT_ID":"2026-067CF","EPOCH":"2026-04-28T19:48:46.459872","MEAN_MOTION":14.91204844,"ECCENTRICITY":0.0003937,"INCLINATION":97.7619,"RA_OF_ASC_NODE":77.844,"ARG_OF_PERICENTER":162.8908,"MEAN_ANOMALY":197.2444,"EPHEMERIS_TYPE":0,"CLASSIFICATION_TYPE":"U","NORAD_CAT_ID":68493,"ELEMENT_SET_NO":999,"REV_AT_EPOCH":436,"BSTAR":0.00045937,"MEAN_MOTION_DOT":4.511e-5,"MEAN_MOTION_DDOT":0}]
