FOSSASAT-2E25           
1 68478U 26067BQ  26118.87468331  .00001650  00000+0  16801-3 0  9992
2 68478  97.7561  77.9160 0003479  88.0815 272.0802 14.92056057  4377
TRANSPORTER-16 OBJECT BR
1 68479U 26067BR  26118.87362074  .00004385  00000+0  43597-3 0  9990
2 68479  97.7512  77.9030 0003052  78.3411 281.8151 14.92187169  4375
TRANSPORTER-16 OBJECT BS
1 68480U 26067BS  26118.79769138  .00003197  00000+0  31591-3 0  9996
2 68480  97.7591  77.8721 0005547  78.6839 281.5003 14.92615948  4361
TORO3                   
1 68481U 26067BT  26118.80885818  .00002021  00000+0  20478-3 0  9990
2 68481  97.7631  77.8693 0004265 107.9761 252.1923 14.92011537  4360
TRANSPORTER-16 OBJECT BU
1 68482U 26067BU  26118.86475147  .00003145  00000+0  31089-3 0  9995
2 68482  97.7538  77.9224 0004950  65.8907 294.2830 14.92613953  4378
TRANSPORTER-16 OBJECT BV
1 68483U 26067BV  26118.86977235  .00004227  00000+0  41868-3 0  9999
2 68483  97.7609  77.9372 0004869  89.7987 270.3790 14.92347469  4370
TRANSPORTER-16 OBJECT BW
1 68484U 26067BW  26118.87821904  .00002096  00000+0  21205-3 0  9997
2 68484  97.7583  77.9184 0003119 109.5872 250.5684 14.92039897  4379
TRANSPORTER-16 OBJECT BX
1 68485U 26067BX  26118.87632397  .00007006  00000+0  69438-3 0  9990
2 68485  97.7545  77.9095 0003087 102.7837 257.3727 14.92109487  4375
TRANSPORTER-16 OBJECT BY
1 68486U 26067BY  26118.81273441  .00001924  00000+0  19620-3 0  9997
2 68486  97.7545  77.8376 0002472 103.2254 256.9240 14.91809558  4362
TRANSPORTER-16 OBJECT BZ
1 68487U 26067BZ  26118.87122586  .00004158  00000+0  41247-3 0  9999
2 68487  97.7507  77.9047 0003252  69.7625 290.3943 14.92304285  4373
TRANSPORTER-16 OBJECT CA
1 68488U 26067CA  26118.68392235  .00001776  00000+0  18250-3 0  9990
2 68488  97.7546  77.6977 0001648 127.6795 232.4573 14.91603519  4349
TRANSPORTER-16 OBJECT CB
1 68489U 26067CB  26118.82265568  .00003118  00000+0  31845-3 0  9992
2 68489  97.7504  77.8114 0001231 175.4035 184.7195 14.91322367  4365
TRANSPORTER-16 OBJECT CC
1 68490U 26067CC  26118.82111039  .00001919  00000+0  19779-3 0  9996
2 68490  97.7584  77.8377 0002504 148.6970 211.4398 14.91387785  4368
TRANSPORTER-16 OBJECT CD
1 68491U 26067CD  26118.82580515  .00005016  00000+0  51064-3 0  9991
2 68491  97.7528  77.8165 0002342 183.2453 176.8751 14.91174022  4368
TRANSPORTER-16 OBJECT CE
1 68492U 26067CE  26118.82675506  .00005955  00000+0  60505-3 0  9999
2 68492  97.7532  77.8162 0002651 186.0889 174.0298 14.91176582  4367
TRANSPORTER-16 OBJECT CF
1 68493U 26067CF  26118.82553773  .00004511  00000+0  45937-3 0  9990
2 68493  97.7619  77.8440 0003937 162.8908 197.2444 14.91204844  4368
